*******************************************************************************
Ephemeris / WWW_USER Mon Mar 10 07:01:02 2025 Pasadena, USA      / Horizons    
*******************************************************************************
Target body name: (2019 AU)                       {source: JPL#11}
Center body name: Earth (399)                     {source: DE441}
Center-site name: Mauna Kea
*******************************************************************************
Start time      : A.D. 2018-Oct-27 04:00:00.0000 UT      
Stop  time      : A.D. 2018-Oct-27 16:11:00.0000 UT      
Step-size       : 1 minutes
*******************************************************************************
Target pole/equ : undefined
Target radii    : undefined                                                    
Center geodetic : 204.5278, 19.8260847, 4.21024   {E-lon(deg),Lat(deg),Alt(km)}
Center cylindric: 204.5278, 6006.35451, 2151.0229 {E-lon(deg),Dxy(km),Dz(km)}
Center pole/equ : ITRF93                          {East-longitude positive}
Center radii    : 6378.137, 6378.137, 6356.752 km {Equator_a, b, pole_c}       
Target primary  : Sun
Vis. interferer : MOON (R_eq= 1737.400) km        {source: DE441}
Rel. light bend : Sun                             {source: DE441}
Rel. lght bnd GM: 1.3271E+11 km^3/s^2                                          
Small-body perts: Yes                             {source: SB441-N16}
Atmos refraction: NO (AIRLESS)
RA format       : HMS
Time format     : CAL 
Calendar mode   : Mixed Julian/Gregorian
RTS-only print  : NO       
EOP file        : eop.250307.p250603                                           
EOP coverage    : DATA-BASED 1962-JAN-20 TO 2025-MAR-07. PREDICTS-> 2025-JUN-02
Units conversion: 1 au= 149597870.700 km, c= 299792.458 km/s, 1 day= 86400.0 s 
Table cut-offs 1: Elevation (-90.0deg=NO ),Airmass (>38.000=NO), Daylight (YES)
Table cut-offs 2: Solar elongation (  0.0,180.0=NO ),Local Hour Angle( 0.0=NO )
Table cut-offs 3: RA/DEC angular rate (     0.0=NO )                           
*******************************************************************************
Initial IAU76/J2000 heliocentric ecliptic osculating elements (au, days, deg.):
  EPOCH=  2458490.5 ! 2019-Jan-07.00 (TDB)         Residual RMS= .17143        
   EC= .1028488096127525   QR= .9927870416208908   TP= 2458466.0562707144      
   OM= 109.6543146265929   W=  330.7265060973358   IN= 5.020660041219873       
  Equivalent ICRF heliocentric cartesian coordinates (au, au/d):
   X=-2.730606646751524E-01  Y= 8.866895536052930E-01  Z= 3.780071563225811E-01
  VX=-1.742089442644723E-02 VY=-4.449382429672076E-03 VZ=-2.237797348809624E-04
Asteroid physical parameters (km, seconds, rotational period in hours):        
   GM= n.a.                RAD= n.a.               ROTPER= n.a.                
   H= 26.7                 G= .150                 B-V= n.a.                   
                           ALBEDO= n.a.            STYP= n.a.                  
*******************************************************************************
 Date__(UT)__HR:MN     R.A._________(ICRF)_________DEC
******************************************************
$$SOE
 2018-Oct-27 12:12  m  02 20 28.633088 -61 39 57.32329
 2018-Oct-27 12:13  m  02 20 28.623476 -61 39 57.60871
 2018-Oct-27 12:14  m  02 20 28.613976 -61 39 57.89281
 2018-Oct-27 12:15  m  02 20 28.604588 -61 39 58.17558
 2018-Oct-27 12:16  m  02 20 28.595313 -61 39 58.45702
 2018-Oct-27 12:17  m  02 20 28.586153 -61 39 58.73715
 2018-Oct-27 12:18  m  02 20 28.577108 -61 39 59.01595
 2018-Oct-27 12:19  m  02 20 28.568179 -61 39 59.29345
 2018-Oct-27 12:20  m  02 20 28.559367 -61 39 59.56963
 2018-Oct-27 12:21  m  02 20 28.550673 -61 39 59.84451
 2018-Oct-27 12:22  m  02 20 28.542098 -61 40 00.11809
 2018-Oct-27 12:23  m  02 20 28.533643 -61 40 00.39036
 2018-Oct-27 12:24  m  02 20 28.525308 -61 40 00.66134
 2018-Oct-27 12:25  m  02 20 28.517095 -61 40 00.93102
 2018-Oct-27 12:26  m  02 20 28.509004 -61 40 01.19941
 2018-Oct-27 12:27  m  02 20 28.501036 -61 40 01.46651
 2018-Oct-27 12:28  m  02 20 28.493193 -61 40 01.73233
 2018-Oct-27 12:29  m  02 20 28.485474 -61 40 01.99687
 2018-Oct-27 12:30  m  02 20 28.477882 -61 40 02.26013
 2018-Oct-27 12:31  m  02 20 28.470416 -61 40 02.52212
 2018-Oct-27 12:32  m  02 20 28.463078 -61 40 02.78284
 2018-Oct-27 12:33  m  02 20 28.455869 -61 40 03.04229
 2018-Oct-27 12:34  m  02 20 28.448789 -61 40 03.30048
 2018-Oct-27 12:35  m  02 20 28.441839 -61 40 03.55741
 2018-Oct-27 12:36  m  02 20 28.435021 -61 40 03.81309
 2018-Oct-27 12:37  m  02 20 28.428335 -61 40 04.06751
 2018-Oct-27 12:38  m  02 20 28.421781 -61 40 04.32068
 2018-Oct-27 12:39  m  02 20 28.415361 -61 40 04.57261
 2018-Oct-27 12:40  m  02 20 28.409076 -61 40 04.82329
 2018-Oct-27 12:41  m  02 20 28.402926 -61 40 05.07274
 2018-Oct-27 12:42  m  02 20 28.396913 -61 40 05.32096
 2018-Oct-27 12:43  m  02 20 28.391037 -61 40 05.56794
 2018-Oct-27 12:44  m  02 20 28.385299 -61 40 05.81370
 2018-Oct-27 12:45  m  02 20 28.379699 -61 40 06.05823
 2018-Oct-27 12:46  m  02 20 28.374240 -61 40 06.30155
 2018-Oct-27 12:47  m  02 20 28.368920 -61 40 06.54365
 2018-Oct-27 12:48  m  02 20 28.363743 -61 40 06.78454
 2018-Oct-27 12:49  m  02 20 28.358707 -61 40 07.02422
 2018-Oct-27 12:50  m  02 20 28.353814 -61 40 07.26270
 2018-Oct-27 12:51  m  02 20 28.349066 -61 40 07.49998
 2018-Oct-27 12:52  m  02 20 28.344462 -61 40 07.73606
 2018-Oct-27 12:53  m  02 20 28.340003 -61 40 07.97095
 2018-Oct-27 12:54  m  02 20 28.335691 -61 40 08.20465
 2018-Oct-27 12:55  m  02 20 28.331526 -61 40 08.43717
 2018-Oct-27 12:56  m  02 20 28.327509 -61 40 08.66852
 2018-Oct-27 12:57  m  02 20 28.323640 -61 40 08.89868
 2018-Oct-27 12:58  m  02 20 28.319922 -61 40 09.12767
 2018-Oct-27 12:59  m  02 20 28.316353 -61 40 09.35550
 2018-Oct-27 13:00  m  02 20 28.312936 -61 40 09.58216
 2018-Oct-27 13:01  m  02 20 28.309670 -61 40 09.80767
 2018-Oct-27 13:02  m  02 20 28.306558 -61 40 10.03202
 2018-Oct-27 13:03  m  02 20 28.303599 -61 40 10.25522
 2018-Oct-27 13:04  m  02 20 28.300794 -61 40 10.47727
 2018-Oct-27 13:05  m  02 20 28.298145 -61 40 10.69818
 2018-Oct-27 13:06  m  02 20 28.295651 -61 40 10.91795
 2018-Oct-27 13:07  m  02 20 28.293314 -61 40 11.13659
 2018-Oct-27 13:08  m  02 20 28.291135 -61 40 11.35410
 2018-Oct-27 13:09  m  02 20 28.289114 -61 40 11.57048
 2018-Oct-27 13:10  m  02 20 28.287251 -61 40 11.78574
 2018-Oct-27 13:11  m  02 20 28.285549 -61 40 11.99989
 2018-Oct-27 13:12  m  02 20 28.284007 -61 40 12.21292
 2018-Oct-27 13:13  m  02 20 28.282627 -61 40 12.42485
 2018-Oct-27 13:14  m  02 20 28.281408 -61 40 12.63567
 2018-Oct-27 13:15  m  02 20 28.280353 -61 40 12.84539
 2018-Oct-27 13:16  m  02 20 28.279461 -61 40 13.05402
 2018-Oct-27 13:17  m  02 20 28.278733 -61 40 13.26156
 2018-Oct-27 13:18  m  02 20 28.278170 -61 40 13.46802
 2018-Oct-27 13:19  m  02 20 28.277773 -61 40 13.67339
 2018-Oct-27 13:20  m  02 20 28.277543 -61 40 13.87769
 2018-Oct-27 13:21  m  02 20 28.277480 -61 40 14.08092
 2018-Oct-27 13:22  m  02 20 28.277585 -61 40 14.28308
 2018-Oct-27 13:23  m  02 20 28.277859 -61 40 14.48417
 2018-Oct-27 13:24  m  02 20 28.278303 -61 40 14.68421
 2018-Oct-27 13:25  m  02 20 28.278916 -61 40 14.88320
 2018-Oct-27 13:26  m  02 20 28.279701 -61 40 15.08113
 2018-Oct-27 13:27  m  02 20 28.280657 -61 40 15.27803
 2018-Oct-27 13:28  m  02 20 28.281786 -61 40 15.47388
 2018-Oct-27 13:29  m  02 20 28.283087 -61 40 15.66870
 2018-Oct-27 13:30  m  02 20 28.284563 -61 40 15.86249
 2018-Oct-27 13:31  m  02 20 28.286213 -61 40 16.05525
 2018-Oct-27 13:32  m  02 20 28.288038 -61 40 16.24700
 2018-Oct-27 13:33  m  02 20 28.290039 -61 40 16.43773
 2018-Oct-27 13:34  m  02 20 28.292217 -61 40 16.62745
 2018-Oct-27 13:35  m  02 20 28.294572 -61 40 16.81616
 2018-Oct-27 13:36  m  02 20 28.297105 -61 40 17.00387
 2018-Oct-27 13:37  m  02 20 28.299817 -61 40 17.19059
 2018-Oct-27 13:38  m  02 20 28.302707 -61 40 17.37631
 2018-Oct-27 13:39  m  02 20 28.305778 -61 40 17.56105
 2018-Oct-27 13:40  m  02 20 28.309030 -61 40 17.74481
 2018-Oct-27 13:41  m  02 20 28.312463 -61 40 17.92759
 2018-Oct-27 13:42  m  02 20 28.316078 -61 40 18.10940
 2018-Oct-27 13:43  m  02 20 28.319876 -61 40 18.29025
 2018-Oct-27 13:44  m  02 20 28.323857 -61 40 18.47013
 2018-Oct-27 13:45  m  02 20 28.328022 -61 40 18.64906
 2018-Oct-27 13:46  m  02 20 28.332372 -61 40 18.82703
 2018-Oct-27 13:47  m  02 20 28.336907 -61 40 19.00406
 2018-Oct-27 13:48  m  02 20 28.341628 -61 40 19.18015
 2018-Oct-27 13:49  m  02 20 28.346536 -61 40 19.35530
 2018-Oct-27 13:50  m  02 20 28.351631 -61 40 19.52952
 2018-Oct-27 13:51  m  02 20 28.356914 -61 40 19.70282
 2018-Oct-27 13:52  m  02 20 28.362385 -61 40 19.87519
 2018-Oct-27 13:53  m  02 20 28.368045 -61 40 20.04665
 2018-Oct-27 13:54  m  02 20 28.373895 -61 40 20.21720
 2018-Oct-27 13:55  m  02 20 28.379936 -61 40 20.38685
 2018-Oct-27 13:56  m  02 20 28.386168 -61 40 20.55559
 2018-Oct-27 13:57  m  02 20 28.392591 -61 40 20.72344
 2018-Oct-27 13:58  m  02 20 28.399206 -61 40 20.89040
 2018-Oct-27 13:59  m  02 20 28.406014 -61 40 21.05648
 2018-Oct-27 14:00  m  02 20 28.413016 -61 40 21.22168
 2018-Oct-27 14:01  m  02 20 28.420212 -61 40 21.38600
 2018-Oct-27 14:02  m  02 20 28.427602 -61 40 21.54946
 2018-Oct-27 14:03  s  02 20 28.435188 -61 40 21.71205
 2018-Oct-27 14:04  m  02 20 28.442969 -61 40 21.87379
 2018-Oct-27 14:05  m  02 20 28.450947 -61 40 22.03467
 2018-Oct-27 14:06  m  02 20 28.459122 -61 40 22.19471
 2018-Oct-27 14:07  m  02 20 28.467494 -61 40 22.35390
 2018-Oct-27 14:08  m  02 20 28.476064 -61 40 22.51226
 2018-Oct-27 14:09  m  02 20 28.484833 -61 40 22.66979
 2018-Oct-27 14:10  m  02 20 28.493802 -61 40 22.82650
 2018-Oct-27 14:11  m  02 20 28.502970 -61 40 22.98238
 2018-Oct-27 14:12  m  02 20 28.512338 -61 40 23.13745
 2018-Oct-27 14:13  m  02 20 28.521908 -61 40 23.29171
 2018-Oct-27 14:14  m  02 20 28.531679 -61 40 23.44517
